NORAD_CAT_ID,OBJECT_NAME,OBJECT_TYPE,EPOCH,MEAN_MOTION,ECCENTRICITY,INCLINATION,RA_OF_ASC_NODE,ARG_OF_PERICENTER,MEAN_ANOMALY,BSTAR,MEAN_MOTION_DOT,MEAN_MOTION_DDOT,TLE_LINE0,TLE_LINE1,TLE_LINE2,SEMIMAJOR_AXIS,PERIOD,APOGEE,PERIGEE,DECAYED
49415.0,STARLINK-3159,PAYLOAD,2021-12-30 14:00:01,15.73132735,0.000159,53.2162,260.1083,26.7361,176.403,0.00056509,0.00079209,0.0,0 STARLINK-3159,1 49415U 21104H   21364.58334491  .00079209  00000-0  56509-3 0  9999,2 49415  53.2162 260.1083 0001590  26.7361 176.4030 15.73132735  3689,6728.087,91.537,351.022,348.88199999999995,0.0
49415.0,STARLINK-3159,PAYLOAD,2021-12-30 22:00:01,15.73200936,0.0001740999999999,53.2165,258.4604,27.3864,264.7072,4.4919e-05,5.688e-05,0.0,0 STARLINK-3159,1 49415U 21104H   21364.91668981  .00005688  00000-0  44919-4 0  9993,2 49415  53.2165 258.4604 0001741  27.3864 264.7072 15.73200936  8742,6727.893,91.533,350.92900000000014,348.586,0.0
49415.0,STARLINK-3159,PAYLOAD,2021-12-30 22:17:18,15.73192295,0.0001190999999999,53.2167,258.3993,47.1585,312.9535,0.00012541,0.0001701,0.0,0 STARLINK-3159,1 49415U 21104H   21364.92868990  .00017010  00000-0  12541-3 0  9993,2 49415  53.2167 258.3993 0001191  47.1585 312.9535 15.73192295  7650,6727.917,91.534,350.583,348.981,0.0
49415.0,STARLINK-3159,PAYLOAD,2021-12-31 14:00:01,15.73190856,0.0001748,53.2165,255.1602,32.6734,77.2512,6.6863e-05,8.77e-05,0.0,0 STARLINK-3159,1 49415U 21104H   21365.58334491  .00008770  00000-0  66863-4 0  9990,2 49415  53.2165 255.1602 0001748  32.6734  77.2512 15.73190856  3690,6727.920999999999,91.534,350.962,348.61,0.0
49415.0,STARLINK-3159,PAYLOAD,2021-12-31 22:40:59,15.73196835,0.0001669,53.2164,253.3703,39.7123,320.402,0.00010696,0.00014415,0.0,0 STARLINK-3159,1 49415U 21104H   21365.94513693  .00014415  00000-0  10696-3 0  9998,2 49415  53.2164 253.3703 0001669  39.7123 320.4020 15.73196835  7811,6727.904,91.533,350.892,348.646,0.0
49415.0,STARLINK-3159,PAYLOAD,2022-01-01 06:00:00,15.73161164,0.0001903,53.2158,251.8622,27.8802,259.8785,0.00016603,0.00022706,0.0,0 STARLINK-3159,1 49415U 21104H   22001.25001157  .00022706  00000-0  16603-3 0  9993,2 49415  53.2158 251.8622 0001903  27.8802 259.8785 15.73161164  8956,6728.005999999999,91.535,351.151,348.591,0.0
49415.0,STARLINK-3159,PAYLOAD,2022-01-01 14:00:01,15.73231858,0.0001638,53.2164,250.2085,32.7045,344.0067,-0.0012963,-0.00178983,0.0,0 STARLINK-3159,1 49415U 21104H   22001.58335648 -.00178983  00000-0 -12963-2 0  9999,2 49415  53.2164 250.2085 0001638  32.7045 344.0067 15.73231858  3681,6727.804,91.531,350.771,348.56699999999995,0.0
49415.0,STARLINK-3159,PAYLOAD,2022-01-01 22:00:00,15.73195263,0.0002099,53.2171,248.5582,25.8231,79.7076,-0.0048441,-0.00631728,0.0,0 STARLINK-3159,1 49415U 21104H   22001.91667824 -.00631728  00000-0 -48441-2 0  9991,2 49415  53.2171 248.5582 0002099  25.8231  79.7076 15.73195263  3684,6727.909000000002,91.533,351.186,348.361,0.0
49415.0,STARLINK-3159,PAYLOAD,2022-01-02 14:00:01,15.72281788,0.0001754999999999,53.2174,245.256,31.5873,250.7016,-0.0052823,-0.0066006,0.0,0 STARLINK-3159,1 49415U 21104H   22002.58334491 -.00660060  00000-0 -52823-2 0  9996,2 49415  53.2174 245.2560 0001755  31.5873 250.7016 15.72281788  3694,6730.514,91.587,353.561,351.1980000000001,0.0
49415.0,STARLINK-3159,PAYLOAD,2022-01-02 22:00:00,15.7181707,0.0002049,53.2176,243.6098,21.974,347.8548,-0.0054111,-0.00662734,0.0,0 STARLINK-3159,1 49415U 21104H   22002.91667824 -.00662734  00000-0 -54111-2 0  9994,2 49415  53.2176 243.6098 0002049  21.9740 347.8548 15.71817070  3693,6731.840999999999,91.614,355.085,352.327,0.0
49415.0,STARLINK-3159,PAYLOAD,2022-01-03 12:00:00,15.7099779,0.0001558,53.2173,240.7265,33.1792,38.501,-0.0055602,-0.00658001,0.0,0 STARLINK-3159,1 49415U 21104H   22003.50001157 -.00658001  00000-0 -55602-2 0  9999,2 49415  53.2173 240.7265 0001558  33.1792  38.5010 15.70997790  9309,6734.181,91.661,357.095,354.997,0.0
49415.0,STARLINK-3159,PAYLOAD,2022-01-03 14:00:01,15.70883562,0.0001641999999999,53.2172,240.3148,39.4187,143.8134,-0.0056244,-0.00662087,0.0,0 STARLINK-3159,1 49415U 21104H   22003.58334491 -.00662087  00000-0 -56244-2 0  9999,2 49415  53.2172 240.3148 0001642  39.4187 143.8134 15.70883562  3699,6734.5080000000025,91.668,357.478,355.267,0.0
49415.0,STARLINK-3159,PAYLOAD,2022-01-03 22:00:00,15.70416245,0.0001872,53.2173,238.672,31.9764,237.1149,-0.0057267,-0.00661114,0.0,0 STARLINK-3159,1 49415U 21104H   22003.91667824 -.00661114  00000-0 -57267-2 0  9991,2 49415  53.2173 238.6720 0001872  31.9764 237.1149 15.70416245  3692,6735.844,91.695,358.969,356.4480000000001,0.0
49415.0,STARLINK-3159,PAYLOAD,2022-01-04 14:00:01,15.69482781,0.0001504,53.2174,235.3837,38.5163,40.6144,-0.0059453999999999,-0.00660062,0.0,0 STARLINK-3159,1 49415U 21104H   22004.58334491 -.00660062  00000-0 -59454-2 0  9997,2 49415  53.2174 235.3837 0001504  38.5163  40.6144 15.69482781  3692,6738.514,91.75,361.393,359.366,0.0
49415.0,STARLINK-3159,PAYLOAD,2022-01-04 21:18:21,15.69384004,0.0002135,53.2153,233.9024,59.8101,300.3128,-0.0032615,-0.0037344,0.0,0 STARLINK-3159,1 49415U 21104H   22004.88775048 -.00373440  00000-0 -32615-2 0  9998,2 49415  53.2153 233.9024 0002135  59.8101 300.3128 15.69384004  8434,6738.797,91.756,362.101,359.223,0.0
49415.0,STARLINK-3159,PAYLOAD,2022-01-05 14:00:01,15.68082311,0.0001548,53.2174,230.4629,36.5922,293.3913,-0.0062813,-0.00658198,0.0,0 STARLINK-3159,1 49415U 21104H   22005.58334491 -.00658198  00000-0 -62813-2 0  9998,2 49415  53.2174 230.4629 0001548  36.5922 293.3913 15.68082311  3691,6742.526,91.832,365.434,363.347,0.0
49415.0,STARLINK-3159,PAYLOAD,2022-01-05 22:00:00,15.67618516,0.0001979,53.2173,228.8271,25.3558,27.1216,-0.0064503,-0.00662861,0.0,0 STARLINK-3159,1 49415U 21104H   22005.91667824 -.00662861  00000-0 -64503-2 0  9994,2 49415  53.2173 228.8271 0001979  25.3558  27.1216 15.67618516  9688,6743.855,91.859,367.055,364.386,0.0
49415.0,STARLINK-3159,PAYLOAD,2022-01-06 14:00:01,15.66683778,0.0001663,53.2174,225.5523,40.8898,174.8997,-0.0066591,-0.00658932,0.0,0 STARLINK-3159,1 49415U 21104H   22006.58334491 -.00658932  00000-0 -66591-2 0  9992,2 49415  53.2174 225.5523 0001663  40.8898 174.8997 15.66683778  3694,6746.538000000001,91.914,369.525,367.281,0.0
49415.0,STARLINK-3159,PAYLOAD,2022-01-06 22:00:00,15.66218174,0.0001861,53.2175,223.9199,31.1469,265.4557,-0.0068185,-0.00661873,0.0,0 STARLINK-3159,1 49415U 21104H   22006.91667824 -.00661873  00000-0 -68185-2 0  9997,2 49415  53.2175 223.9199 0001861  31.1469 265.4557 15.66218174  3708,6747.875,91.941,370.995,368.484,0.0
49415.0,STARLINK-3159,PAYLOAD,2022-01-07 06:00:00,15.65751019,0.0001394,53.2174,222.2854,40.9811,335.876,-0.0069319999999999,-0.00660329,0.0,0 STARLINK-3159,1 49415U 21104H   22007.25001157 -.00660329  00000-0 -69320-2 0  9993,2 49415  53.2174 222.2854 0001394  40.9811 335.8760 15.65751019  9890,6749.217,91.969,372.023,370.141,0.0
49415.0,STARLINK-3159,PAYLOAD,2022-01-07 14:00:01,15.6528299,0.0001754,53.2176,220.6521,32.5363,64.0147,-0.0070253,-0.00657055,0.0,0 STARLINK-3159,1 49415U 21104H   22007.58334491 -.00657055  00000-0 -70253-2 0  9998,2 49415  53.2176 220.6521 0001754  32.5363  64.0147 15.65282990  3693,6750.562,91.996,373.611,371.24300000000005,0.0
49415.0,STARLINK-3159,PAYLOAD,2022-01-07 22:00:00,15.64817509,0.0001976,53.2174,219.0229,30.5968,145.0851,-0.0071848999999999,-0.00659405,0.0,0 STARLINK-3159,1 49415U 21104H   22007.91667824 -.00659405  00000-0 -71849-2 0  9997,2 49415  53.2174 219.0229 0001976  30.5968 145.0851 15.64817509  3694,6751.901,92.024,375.1,372.431,0.0
49415.0,STARLINK-3159,PAYLOAD,2022-01-08 14:00:01,15.63883967,0.0001709,53.2174,215.7619,32.6116,299.6544,-0.0074393,-0.00657872,0.0,0 STARLINK-3159,1 49415U 21104H   22008.58334491 -.00657872  00000-0 -74393-2 0  9995,2 49415  53.2174 215.7619 0001709  32.6116 299.6544 15.63883967 10101,6754.587,92.078,377.607,375.298,0.0
49415.0,STARLINK-3159,PAYLOAD,2022-01-08 22:00:00,15.6341897,0.0001883,53.2174,214.1363,27.6598,22.0551,-0.0076209,-0.0066137,0.0,0 STARLINK-3159,1 49415U 21104H   22008.91667824 -.00661370  00000-0 -76209-2 0  9997,2 49415  53.2174 214.1363 0001883  27.6598  22.0551 15.63418970  3680,6755.927,92.106,379.064,376.519,0.0
49415.0,STARLINK-3159,PAYLOAD,2022-01-09 14:00:01,15.62484386,0.0001854,53.2177,210.882,35.3122,167.6232,-0.0078561999999999,-0.00657445,0.0,0 STARLINK-3159,1 49415U 21104H   22009.58334491 -.00657445  00000-0 -78562-2 0  9994,2 49415  53.2177 210.8820 0001854  35.3122 167.6232 15.62484386 10268,6758.62,92.161,381.73800000000006,379.232,0.0
49415.0,STARLINK-3159,PAYLOAD,2022-01-09 22:00:00,15.62018575,0.0001914,53.2177,209.2596,32.1573,246.5456,-0.0080334999999999,-0.0065993,0.0,0 STARLINK-3159,1 49415U 21104H   22009.91667824 -.00659930  00000-0 -80335-2 0  9992,2 49415  53.2177 209.2596 0001914  32.1573 246.5456 15.62018575  3688,6759.964,92.188,383.12300000000016,380.535,0.0
49415.0,STARLINK-3159,PAYLOAD,2022-01-10 14:00:01,15.61084148,0.0001829,53.2176,206.0123,28.9123,39.6474,-0.0082945,-0.00657214,0.0,0 STARLINK-3159,1 49415U 21104H   22010.58334491 -.00657214  00000-0 -82945-2 0  9990,2 49415  53.2176 206.0123 0001829  28.9123  39.6474 15.61084148 10415,6762.661,92.244,385.763,383.289,0.0
49415.0,STARLINK-3159,PAYLOAD,2022-01-10 22:00:00,15.60616472,0.0001846,53.2174,204.3933,34.7752,107.8704,-0.0084212,-0.00655423,0.0,0 STARLINK-3159,1 49415U 21104H   22010.91667824 -.00655423  00000-0 -84212-2 0  9995,2 49415  53.2174 204.3933 0001846  34.7752 107.8704 15.60616472  3691,6764.012,92.271,387.126,384.629,0.0
49415.0,STARLINK-3159,PAYLOAD,2022-01-11 14:00:01,15.59685713,0.0001693,53.2176,201.1527,37.0643,252.0728,-0.0087746,-0.00658587,0.0,0 STARLINK-3159,1 49415U 21104H   22011.58334491 -.00658587  00000-0 -87746-2 0  9999,2 49415  53.2176 201.1527 0001693  37.0643 252.0728 15.59685713 10578,6766.703,92.326,389.714,387.422,0.0
